<?xml version="1.0" encoding="UTF-8"?>
<!--
  Geofence auto-advance test (Course.demo: hole 2 tee = 25.00200, 121.00000).
  Walks up to the hole-2 tee then dwells ~38 s. GeofenceLock (radius 30 m,
  dwell 30 s) must auto-advance the round to hole 2.

  Use:  Xcode ▸ run app ▸ Debug ▸ Simulate Location ▸ (add this file),
        or scheme ▸ Options ▸ Default Location.
  Expect: "第 1 洞" → "第 2 洞" after ~30 s on the tee.
-->
<gpx version="1.1" creator="GoToGolf">
  <wpt lat="25.00150" lon="121.00000"><time>2025-01-01T00:00:00Z</time></wpt>
  <wpt lat="25.00165" lon="121.00000"><time>2025-01-01T00:00:01Z</time></wpt>
  <wpt lat="25.00178" lon="121.00000"><time>2025-01-01T00:00:02Z</time></wpt>
  <wpt lat="25.00188" lon="121.00000"><time>2025-01-01T00:00:03Z</time></wpt>
  <wpt lat="25.00194" lon="121.00000"><time>2025-01-01T00:00:04Z</time></wpt>
  <wpt lat="25.00198" lon="121.00000"><time>2025-01-01T00:00:05Z</time></wpt>
  <wpt lat="25.00200" lon="121.00000"><time>2025-01-01T00:00:06Z</time></wpt>
  <wpt lat="25.00200" lon="121.00000"><time>2025-01-01T00:00:07Z</time></wpt>
  <wpt lat="25.00200" lon="121.00000"><time>2025-01-01T00:00:08Z</time></wpt>
  <wpt lat="25.00200" lon="121.00000"><time>2025-01-01T00:00:09Z</time></wpt>
  <wpt lat="25.00200" lon="121.00000"><time>2025-01-01T00:00:10Z</time></wpt>
  <wpt lat="25.00200" lon="121.00000"><time>2025-01-01T00:00:11Z</time></wpt>
  <wpt lat="25.00200" lon="121.00000"><time>2025-01-01T00:00:12Z</time></wpt>
  <wpt lat="25.00200" lon="121.00000"><time>2025-01-01T00:00:13Z</time></wpt>
  <wpt lat="25.00200" lon="121.00000"><time>2025-01-01T00:00:14Z</time></wpt>
  <wpt lat="25.00200" lon="121.00000"><time>2025-01-01T00:00:15Z</time></wpt>
  <wpt lat="25.00200" lon="121.00000"><time>2025-01-01T00:00:16Z</time></wpt>
  <wpt lat="25.00200" lon="121.00000"><time>2025-01-01T00:00:17Z</time></wpt>
  <wpt lat="25.00200" lon="121.00000"><time>2025-01-01T00:00:18Z</time></wpt>
  <wpt lat="25.00200" lon="121.00000"><time>2025-01-01T00:00:19Z</time></wpt>
  <wpt lat="25.00200" lon="121.00000"><time>2025-01-01T00:00:20Z</time></wpt>
  <wpt lat="25.00200" lon="121.00000"><time>2025-01-01T00:00:21Z</time></wpt>
  <wpt lat="25.00200" lon="121.00000"><time>2025-01-01T00:00:22Z</time></wpt>
  <wpt lat="25.00200" lon="121.00000"><time>2025-01-01T00:00:23Z</time></wpt>
  <wpt lat="25.00200" lon="121.00000"><time>2025-01-01T00:00:24Z</time></wpt>
  <wpt lat="25.00200" lon="121.00000"><time>2025-01-01T00:00:25Z</time></wpt>
  <wpt lat="25.00200" lon="121.00000"><time>2025-01-01T00:00:26Z</time></wpt>
  <wpt lat="25.00200" lon="121.00000"><time>2025-01-01T00:00:27Z</time></wpt>
  <wpt lat="25.00200" lon="121.00000"><time>2025-01-01T00:00:28Z</time></wpt>
  <wpt lat="25.00200" lon="121.00000"><time>2025-01-01T00:00:29Z</time></wpt>
  <wpt lat="25.00200" lon="121.00000"><time>2025-01-01T00:00:30Z</time></wpt>
  <wpt lat="25.00200" lon="121.00000"><time>2025-01-01T00:00:31Z</time></wpt>
  <wpt lat="25.00200" lon="121.00000"><time>2025-01-01T00:00:32Z</time></wpt>
  <wpt lat="25.00200" lon="121.00000"><time>2025-01-01T00:00:33Z</time></wpt>
  <wpt lat="25.00200" lon="121.00000"><time>2025-01-01T00:00:34Z</time></wpt>
  <wpt lat="25.00200" lon="121.00000"><time>2025-01-01T00:00:35Z</time></wpt>
  <wpt lat="25.00200" lon="121.00000"><time>2025-01-01T00:00:36Z</time></wpt>
  <wpt lat="25.00200" lon="121.00000"><time>2025-01-01T00:00:37Z</time></wpt>
  <wpt lat="25.00200" lon="121.00000"><time>2025-01-01T00:00:38Z</time></wpt>
  <wpt lat="25.00200" lon="121.00000"><time>2025-01-01T00:00:39Z</time></wpt>
  <wpt lat="25.00200" lon="121.00000"><time>2025-01-01T00:00:40Z</time></wpt>
  <wpt lat="25.00200" lon="121.00000"><time>2025-01-01T00:00:41Z</time></wpt>
  <wpt lat="25.00200" lon="121.00000"><time>2025-01-01T00:00:42Z</time></wpt>
  <wpt lat="25.00200" lon="121.00000"><time>2025-01-01T00:00:43Z</time></wpt>
  <wpt lat="25.00200" lon="121.00000"><time>2025-01-01T00:00:44Z</time></wpt>
  <wpt lat="25.00200" lon="121.00000"><time>2025-01-01T00:00:45Z</time></wpt>
</gpx>
